HAWK-7A                 
1 56191U 23054P   26063.11602020  .00009883  00000+0  38515-3 0  9997
2 56191  97.2847 313.1260 0004489  62.0858 298.0835 15.26148140160993
HAWK-7B                 
1 56193U 23054R   26062.78806409  .00008997  00000+0  35099-3 0  9997
2 56193  97.2879 311.0305 0003954  72.8474 287.3197 15.26143514160943
HAWK-7C                 
1 56200U 23054Y   26063.11578811  .00009679  00000+0  37771-3 0  9994
2 56200  97.2850 312.1532 0003969  63.9772 296.1875 15.26110098160990
