[{"OBJECT_NAME":"HAWK-7A","OBJECT_ID":"2023-054P","EPOCH":"2026-03-04T02:47:04.145280","MEAN_MOTION":15.2614814,"ECCENTRICITY":0.0004489,"INCLINATION":97.2847,"RA_OF_ASC_NODE":313.126,"ARG_OF_PERICENTER":62.0858,"MEAN_ANOMALY":298.0835,"EPHEMERIS_TYPE":0,"CLASSIFICATION_TYPE":"U","NORAD_CAT_ID":56191,"ELEMENT_SET_NO":999,"REV_AT_EPOCH":16099,"BSTAR":0.00038515,"MEAN_MOTION_DOT":9.883e-5,"MEAN_MOTION_DDOT":0},{"OBJECT_NAME":"HAWK-7B","OBJECT_ID":"2023-054R","EPOCH":"2026-03-03T18:54:48.737376","MEAN_MOTION":15.26143514,"ECCENTRICITY":0.0003954,"INCLINATION":97.2879,"RA_OF_ASC_NODE":311.0305,"ARG_OF_PERICENTER":72.8474,"MEAN_ANOMALY":287.3197,"EPHEMERIS_TYPE":0,"CLASSIFICATION_TYPE":"U","NORAD_CAT_ID":56193,"ELEMENT_SET_NO":999,"REV_AT_EPOCH":16094,"BSTAR":0.00035099,"MEAN_MOTION_DOT":8.997e-5,"MEAN_MOTION_DDOT":0},{"OBJECT_NAME":"HAWK-7C","OBJECT_ID":"2023-054Y","EPOCH":"2026-03-04T02:46:44.092704","MEAN_MOTION":15.26110098,"ECCENTRICITY":0.0003969,"INCLINATION":97.285,"RA_OF_ASC_NODE":312.1532,"ARG_OF_PERICENTER":63.9772,"MEAN_ANOMALY":296.1875,"EPHEMERIS_TYPE":0,"CLASSIFICATION_TYPE":"U","NORAD_CAT_ID":56200,"ELEMENT_SET_NO":999,"REV_AT_EPOCH":16099,"BSTAR":0.00037771,"MEAN_MOTION_DOT":9.679e-5,"MEAN_MOTION_DDOT":0}]
